PLEIADES 1A             
1 38012U 11076F   26188.51316319  .00000462  00000+0  10915-3 0  9993
2 38012  98.1965 263.3429 0001746  83.7603  44.4509 14.58545105774954
PLEIADES 1B             
1 39019U 12068A   26188.52267219  .00000541  00000+0  12615-3 0  9995
2 39019  98.1936 263.2945 0001651  81.9239 278.2148 14.58574964723812
