{"fetched_at":"2026-07-07T18:29:41.621Z","source":"https://celestrak.org/NORAD/elements/gp.php?NAME=PLEIADES&FORMAT=JSON","constellation":"pleiades","records":[{"OBJECT_NAME":"PLEIADES 1A","OBJECT_ID":"2011-076F","EPOCH":"2026-07-07T12:18:57.299616","CLASSIFICATION_TYPE":"U","MEAN_MOTION":14.58545105,"ECCENTRICITY":0.0001746,"INCLINATION":98.1965,"RA_OF_ASC_NODE":263.3429,"ARG_OF_PERICENTER":83.7603,"MEAN_ANOMALY":44.4509,"EPHEMERIS_TYPE":0,"NORAD_CAT_ID":38012,"ELEMENT_SET_NO":999,"REV_AT_EPOCH":77495,"BSTAR":0.00010915,"MEAN_MOTION_DOT":0.00000462,"MEAN_MOTION_DDOT":0},{"OBJECT_NAME":"PLEIADES 1B","OBJECT_ID":"2012-068A","EPOCH":"2026-07-07T12:32:38.877216","CLASSIFICATION_TYPE":"U","MEAN_MOTION":14.58574964,"ECCENTRICITY":0.0001651,"INCLINATION":98.1936,"RA_OF_ASC_NODE":263.2945,"ARG_OF_PERICENTER":81.9239,"MEAN_ANOMALY":278.2148,"EPHEMERIS_TYPE":0,"NORAD_CAT_ID":39019,"ELEMENT_SET_NO":999,"REV_AT_EPOCH":72381,"BSTAR":0.00012615,"MEAN_MOTION_DOT":0.00000541,"MEAN_MOTION_DDOT":0}]}
